{"type": "FeatureCollection", "features": [ {"type": "Feature", "properties": {"norad_id": 67041, "name": "STARLINK-35765", "group": "last-30-days", "lat": 17.230350444883868, "lon": 138.85231197065937, "alt_km": 326.1995607460922, "timestamp": "2025-12-22T23:36:19.413658+00:00", "meta": {"OBJECT_NAME": "STARLINK-35765", "OBJECT_ID": "2025-294M", "EPOCH": "2025-12-22T20:00:01.999008", "MEAN_MOTION": 15.81210756, "ECCENTRICITY": 0.0001503, "INCLINATION": 43.0002, "RA_OF_ASC_NODE": 120.3318, "ARG_OF_PERICENTER": 282.6006, "MEAN_ANOMALY": 327.328, "EPHEMERIS_TYPE": 0, "CLASSIFICATION_TYPE": "U", "NORAD_CAT_ID": 67041, "ELEMENT_SET_NO": 999, "REV_AT_EPOCH": 173, "BSTAR": -0.010642, "MEAN_MOTION_DOT": -0.01885965, "MEAN_MOTION_DDOT": 0}, "tle": {"line1": "1 67041U 25294M   25356.83335647 -.01885965  00000+0 -10642-1 0  9997", "line2": "2 67041  43.0002 120.3318 0001503 282.6006 327.3280 15.81210756  1732"}}, "geometry": {"type": "Point", "coordinates": [138.85231197065937, 17.230350444883868]}}, {"type": "Feature", "properties": {"norad_id": 67042, "name": "STARLINK-35773", "group": "last-30-days", "lat": 18.637618817177216, "lon": 140.62628834708795, "alt_km": 326.1165675832599, "timestamp": "2025-12-22T23:36:19.413668+00:00", "meta": {"OBJECT_NAME": "STARLINK-35773", "OBJECT_ID": "2025-294N", "EPOCH": "2025-12-22T20:00:01.999008", "MEAN_MOTION": 15.81206659, "ECCENTRICITY": 0.0001371, "INCLINATION": 43, "RA_OF_ASC_NODE": 120.3262, "ARG_OF_PERICENTER": 276.9466, "MEAN_ANOMALY": 335.1872, "EPHEMERIS_TYPE": 0, "CLASSIFICATION_TYPE": "U", "NORAD_CAT_ID": 67042, "ELEMENT_SET_NO": 999, "REV_AT_EPOCH": 192, "BSTAR": -0.010709, "MEAN_MOTION_DOT": -0.01895767, "MEAN_MOTION_DDOT": 0}, "tle": {"line1": "1 67042U 25294N   25356.83335647 -.01895767  00000+0 -10709-1 0  9993", "line2": "2 67042  43.0000 120.3262 0001371 276.9466 335.1872 15.81206659  1920"}}, "geometry": {"type": "Point", "coordinates": [140.62628834708795, 18.637618817177216]}}, {"type": "Feature", "properties": {"norad_id": 67043, "name": "STARLINK-35901", "group": "last-30-days", "lat": 20.017225636274066, "lon": 142.41599661358654, "alt_km": 325.97992641573, "timestamp": "2025-12-22T23:36:19.413677+00:00", "meta": {"OBJECT_NAME": "STARLINK-35901", "OBJECT_ID": "2025-294P", "EPOCH": "2025-12-22T14:00:01.999872", "MEAN_MOTION": 15.82277171, "ECCENTRICITY": 0.00013616, "INCLINATION": 42.9998, "RA_OF_ASC_NODE": 121.8529, "ARG_OF_PERICENTER": 275.1011, "MEAN_ANOMALY": 353.9188, "EPHEMERIS_TYPE": 0, "CLASSIFICATION_TYPE": "U", "NORAD_CAT_ID": 67043, "ELEMENT_SET_NO": 999, "REV_AT_EPOCH": 188, "BSTAR": -0.01054047, "MEAN_MOTION_DOT": -0.0195378, "MEAN_MOTION_DDOT": 0}, "tle": {"line1": "1 67043U 25294P   25356.58335648 -.01953780  00000+0 -10540-1 0  9990", "line2": "2 67043  42.9998 121.8529 0001361 275.1011 353.9188 15.82277171  1884"}}, "geometry": {"type": "Point", "coordinates": [142.41599661358654, 20.017225636274066]}}, {"type": "Feature", "properties": {"norad_id": 67044, "name": "STARLINK-35884", "group": "last-30-days", "lat": 21.34230985941383, "lon": 144.1875956620078, "alt_km": 325.79191983060264, "timestamp": "2025-12-22T23:36:19.413689+00:00", "meta": {"OBJECT_NAME": "STARLINK-35884", "OBJECT_ID": "2025-294Q", "EPOCH": "2025-12-22T14:00:01.999872", "MEAN_MOTION": 15.82266488, "ECCENTRICITY": 0.00012964, "INCLINATION": 43, "RA_OF_ASC_NODE": 121.8474, "ARG_OF_PERICENTER": 275.8571, "MEAN_ANOMALY": 355.3014, "EPHEMERIS_TYPE": 0, "CLASSIFICATION_TYPE": "U", "NORAD_CAT_ID": 67044, "ELEMENT_SET_NO": 999, "REV_AT_EPOCH": 188, "BSTAR": -0.010529156, "MEAN_MOTION_DOT": -0.01951041, "MEAN_MOTION_DDOT": 0}, "tle": {"line1": "1 67044U 25294Q   25356.58335648 -.01951041  00000+0 -10529-1 0  9996", "line2": "2 67044  43.0000 121.8474 0001296 275.8571 355.3014 15.82266488  1888"}}, "geometry": {"type": "Point", "coordinates": [144.1875956620078, 21.34230985941383]}}, {"type": "Feature", "properties": {"norad_id": 67045, "name": "STARLINK-35891", "group": "last-30-days", "lat": 22.859368640128757, "lon": 146.2889526971846, "alt_km": 325.68184963416934, "timestamp": "2025-12-22T23:36:19.413701+00:00", "meta": {"OBJECT_NAME": "STARLINK-35891", "OBJECT_ID": "2025-294R", "EPOCH": "2025-12-22T14:00:01.999872", "MEAN_MOTION": 15.82247529, "ECCENTRICITY": 0.0001266, "INCLINATION": 42.9998, "RA_OF_ASC_NODE": 121.8409, "ARG_OF_PERICENTER": 274.2355, "MEAN_ANOMALY": 359.4246, "EPHEMERIS_TYPE": 0, "CLASSIFICATION_TYPE": "U", "NORAD_CAT_ID": 67045, "ELEMENT_SET_NO": 999, "REV_AT_EPOCH": 180, "BSTAR": -0.010562126, "MEAN_MOTION_DOT": -0.01954769, "MEAN_MOTION_DDOT": 0}, "tle": {"line1": "1 67045U 25294R   25356.58335648 -.01954769  00000+0 -10562-1 0  9994", "line2": "2 67045  42.9998 121.8409 0001266 274.2355 359.4246 15.82247529  1800"}}, "geometry": {"type": "Point", "coordinates": [146.2889526971846, 22.859368640128757]}}, {"type": "Feature", "properties": {"norad_id": 67046, "name": "STARLINK-35721", "group": "last-30-days", "lat": 24.226372440104868, "lon": 148.25828576391612, "alt_km": 325.50979790412384, "timestamp": "2025-12-22T23:36:19.413711+00:00", "meta": {"OBJECT_NAME": "STARLINK-35721", "OBJECT_ID": "2025-294S", "EPOCH": "2025-12-22T14:00:01.999872", "MEAN_MOTION": 15.82231831, "ECCENTRICITY": 0.00011786, "INCLINATION": 43, "RA_OF_ASC_NODE": 121.8353, "ARG_OF_PERICENTER": 274.0529, "MEAN_ANOMALY": 1.8969, "EPHEMERIS_TYPE": 0, "CLASSIFICATION_TYPE": "U", "NORAD_CAT_ID": 67046, "ELEMENT_SET_NO": 999, "REV_AT_EPOCH": 188, "BSTAR": -0.010563841, "MEAN_MOTION_DOT": -0.01953694, "MEAN_MOTION_DDOT": 0}, "tle": {"line1": "1 67046U 25294S   25356.58335648 -.01953694  00000+0 -10564-1 0  9993", "line2": "2 67046  43.0000 121.8353 0001178 274.0529   1.8969 15.82231831  1885"}}, "geometry": {"type": "Point", "coordinates": [148.25828576391612, 24.226372440104868]}}, {"type": "Feature", "properties": {"norad_id": 67047, "name": "STARLINK-35779", "group": "last-30-days", "lat": 25.685100717188188, "lon": 150.45142788256314, "alt_km": 325.3991866326269, "timestamp": "2025-12-22T23:36:19.413721+00:00", "meta": {"OBJECT_NAME": "STARLINK-35779", "OBJECT_ID": "2025-294T", "EPOCH": "2025-12-22T14:00:01.999872", "MEAN_MOTION": 15.82207819, "ECCENTRICITY": 0.00011695, "INCLINATION": 42.9998, "RA_OF_ASC_NODE": 121.8293, "ARG_OF_PERICENTER": 272.0458, "MEAN_ANOMALY": 6.4022, "EPHEMERIS_TYPE": 0, "CLASSIFICATION_TYPE": "U", "NORAD_CAT_ID": 67047, "ELEMENT_SET_NO": 999, "REV_AT_EPOCH": 169, "BSTAR": -0.010530545, "MEAN_MOTION_DOT": -0.01946434, "MEAN_MOTION_DDOT": 0}, "tle": {"line1": "1 67047U 25294T   25356.58335648 -.01946434  00000+0 -10531-1 0  9992", "line2": "2 67047  42.9998 121.8293 0001169 272.0458   6.4022 15.82207819  1691"}}, "geometry": {"type": "Point", "coordinates": [150.45142788256314, 25.685100717188188]}}, {"type": "Feature", "properties": {"norad_id": 67048, "name": "STARLINK-35905", "group": "last-30-days", "lat": 26.82607972079844, "lon": 152.24085724368, "alt_km": 325.14291245827553, "timestamp": "2025-12-22T23:36:19.413731+00:00", "meta": {"OBJECT_NAME": "STARLINK-35905", "OBJECT_ID": "2025-294U", "EPOCH": "2025-12-22T14:00:01.999872", "MEAN_MOTION": 15.82200682, "ECCENTRICITY": 0.00010772, "INCLINATION": 43, "RA_OF_ASC_NODE": 121.8242, "ARG_OF_PERICENTER": 275.3752, "MEAN_ANOMALY": 5.0513, "EPHEMERIS_TYPE": 0, "CLASSIFICATION_TYPE": "U", "NORAD_CAT_ID": 67048, "ELEMENT_SET_NO": 999, "REV_AT_EPOCH": 180, "BSTAR": -0.01050706, "MEAN_MOTION_DOT": -0.01942013, "MEAN_MOTION_DDOT": 0}, "tle": {"line1": "1 67048U 25294U   25356.58335648 -.01942013  00000+0 -10507-1 0  9995", "line2": "2 67048  43.0000 121.8242 0001077 275.3752   5.0513 15.82200682  1807"}}, "geometry": {"type": "Point", "coordinates": [152.24085724368, 26.82607972079844]}}, {"type": "Feature", "properties": {"norad_id": 67049, "name": "STARLINK-35877", "group": "last-30-days", "lat": 28.173776577496483, "lon": 154.45172934538, "alt_km": 325.20769043732435, "timestamp": "2025-12-22T23:36:19.413740+00:00", "meta": {"OBJECT_NAME": "STARLINK-35877", "OBJECT_ID": "2025-294V", "EPOCH": "2025-12-22T14:00:01.999872", "MEAN_MOTION": 15.82191151, "ECCENTRICITY": 0.00012522, "INCLINATION": 43.0002, "RA_OF_ASC_NODE": 121.8183, "ARG_OF_PERICENTER": 269.7132, "MEAN_ANOMALY": 13.1142, "EPHEMERIS_TYPE": 0, "CLASSIFICATION_TYPE": "U", "NORAD_CAT_ID": 67049, "ELEMENT_SET_NO": 999, "REV_AT_EPOCH": 188, "BSTAR": -0.010563146, "MEAN_MOTION_DOT": -0.01950394, "MEAN_MOTION_DDOT": 0}, "tle": {"line1": "1 67049U 25294V   25356.58335648 -.01950394  00000+0 -10563-1 0  9999", "line2": "2 67049  43.0002 121.8183 0001252 269.7132  13.1142 15.82191151  1884"}}, "geometry": {"type": "Point", "coordinates": [154.45172934538, 28.173776577496483]}}, {"type": "Feature", "properties": {"norad_id": 67050, "name": "STARLINK-36078", "group": "last-30-days", "lat": 29.49460372466283, "lon": 156.73601563121673, "alt_km": 325.1790414844536, "timestamp": "2025-12-22T23:36:19.413750+00:00", "meta": {"OBJECT_NAME": "STARLINK-36078", "OBJECT_ID": "2025-294W", "EPOCH": "2025-12-22T14:00:01.999872", "MEAN_MOTION": 15.82170722, "ECCENTRICITY": 0.00013674, "INCLINATION": 43, "RA_OF_ASC_NODE": 121.8121, "ARG_OF_PERICENTER": 268.4246, "MEAN_ANOMALY": 16.8332, "EPHEMERIS_TYPE": 0, "CLASSIFICATION_TYPE": "U", "NORAD_CAT_ID": 67050, "ELEMENT_SET_NO": 999, "REV_AT_EPOCH": 180, "BSTAR": -0.010586083, "MEAN_MOTION_DOT": -0.01952536, "MEAN_MOTION_DDOT": 0}, "tle": {"line1": "1 67050U 25294W   25356.58335648 -.01952536  00000+0 -10586-1 0  9996", "line2": "2 67050  43.0000 121.8121 0001367 268.4246  16.8332 15.82170722  1809"}}, "geometry": {"type": "Point", "coordinates": [156.73601563121673, 29.49460372466283]}}]}